{
 "type": "Feature",
 "properties": {
  "name": "Narli oil plume, recovered from sampled spectra",
  "class": "oil",
  "n_pixels": 218,
  "area_ha": 8.72,
  "pixel_size_m": 20.0,
  "note": "Reconstructed by matching the ten-band reflectance tuple of each sampled pixel against a full export of the 3 x 3 km analysis window. This is the exact footprint of the sampled oil class, not the original hand-drawn outline, which was not archived."
 },
 "geometry": {
  "type": "Polygon",
  "coordinates": [
   [
    [
     37.130078471252844,
     37.350179172986664
    ],
    [
     37.1300829416553,
     37.349998991328086
    ],
    [
     37.13030863990297,
     37.35000255995335
    ],
    [
     37.13053433819043,
     37.3500061281483
    ],
    [
     37.130760036517664,
     37.35000969591293
    ],
    [
     37.13098573488466,
     37.35001326324725
    ],
    [
     37.13121143329143,
     37.35001683015124
    ],
    [
     37.13143713173797,
     37.35002039662491
    ],
    [
     37.131662830224265,
     37.350023962668274
    ],
    [
     37.131888528750316,
     37.350027528281316
    ],
    [
     37.13189299480254,
     37.34984734643187
    ],
    [
     37.13211869282953,
     37.34985091159149
    ],
    [
     37.132344390896264,
     37.3498544763208
    ],
    [
     37.13257008900273,
     37.349858040619786
    ],
    [
     37.13279578714895,
     37.34986160448845
    ],
    [
     37.13280025100621,
     37.349681422540655
    ],
    [
     37.13302594865334,
     37.34968498595592
    ],
    [
     37.133251646340206,
     37.34968854894087
    ],
    [
     37.133477344066776,
     37.34969211149551
    ],
    [
     37.13370304183308,
     37.34969567361982
    ],
    [
     37.133928739639074,
     37.34969923531383
    ],
    [
     37.133924278475845,
     37.34987941737705
    ],
    [
     37.134149976860364,
     37.34988297866382
    ],
    [
     37.13437567528457,
     37.34988653952027
    ],
    [
     37.134371215159256,
     37.35006672162368
    ],
    [
     37.13459691416198,
     37.350070282072885
    ],
    [
     37.134592454535785,
     37.350250464193415
    ],
    [
     37.13458799486989,
     37.350430646307984
    ],
    [
     37.13458353516431,
     37.35061082841661
    ],
    [
     37.13435783454512,
     37.35060726789819
    ],
    [
     37.13435337426101,
     37.35078744997779
    ],
    [
     37.13434891393721,
     37.35096763205141
    ],
    [
     37.1343444535737,
     37.35114781411909
    ],
    [
     37.1343399931705,
     37.35132799618081
    ],
    [
     37.13411429043566,
     37.35132443513976
    ],
    [
     37.13410982945391,
     37.351504617172445
    ],
    [
     37.13410536843245,
     37.35168479919917
    ],
    [
     37.13387966465961,
     37.351681237681625
    ],
    [
     37.13365396092648,
     37.35167767573373
    ],
    [
     37.1336494987876,
     37.351857857708346
    ],
    [
     37.13342379455532,
     37.35185429530703
    ],
    [
     37.13341933183787,
     37.352034477252595
    ],
    [
     37.13319362710645,
     37.352030914397844
    ],
    [
     37.13296792241476,
     37.35202735111274
    ],
    [
     37.13274221776279,
     37.352023787397286
    ],
    [
     37.13251651315056,
     37.35202022325148
    ],
    [
     37.13229080857808,
     37.35201665867533
    ],
    [
     37.132065104045324,
     37.35201309366883
    ],
    [
     37.13206956999595,
     37.35183291186183
    ],
    [
     37.13184386604181,
     37.35182934644807
    ],
    [
     37.131618162127424,
     37.35182578060398
    ],
    [
     37.1313924582528,
     37.35182221432954
    ],
    [
     37.13116675441794,
     37.351818647624754
    ],
    [
     37.13094105062284,
     37.351815080489615
    ],
    [
     37.13071534686751,
     37.35181151292414
    ],
    [
     37.13048964315197,
     37.35180794492831
    ],
    [
     37.130263939476194,
     37.351804376502145
    ],
    [
     37.13003823584022,
     37.351800807645624
    ],
    [
     37.129812532244024,
     37.35179723835877
    ],
    [
     37.129817003543444,
     37.351617056776966
    ],
    [
     37.129821474803066,
     37.3514368751892
    ],
    [
     37.12982594602289,
     37.351256693595474
    ],
    [
     37.12983041720292,
     37.351076511995785
    ],
    [
     37.129834888343154,
     37.35089633039013
    ],
    [
     37.129839359443594,
     37.35071614877853
    ],
    [
     37.12984383050424,
     37.350535967160965
    ],
    [
     37.1298483015251,
     37.35035578553743
    ],
    [
     37.1300740008106,
     37.35035935463927
    ],
    [
     37.130078471252844,
     37.350179172986664
    ]
   ]
  ]
 }
}