{
 "type": "FeatureCollection",
 "features": [
  {
   "type": "Feature",
   "geometry": {
    "type": "Polygon",
    "coordinates": [
     [
      [
       39.241723,
       37.667796
      ],
      [
       39.241722,
       37.667705
      ],
      [
       39.241836,
       37.667705
      ],
      [
       39.241835,
       37.667525
      ],
      [
       39.241608,
       37.667525
      ],
      [
       39.241609,
       37.667615
      ],
      [
       39.241269,
       37.667616
      ],
      [
       39.241268,
       37.667436
      ],
      [
       39.241041,
       37.667436
      ],
      [
       39.24104,
       37.667076
      ],
      [
       39.241494,
       37.667075
      ],
      [
       39.241493,
       37.666895
      ],
      [
       39.24172,
       37.666894
      ],
      [
       39.24172,
       37.667074
      ],
      [
       39.241834,
       37.667074
      ],
      [
       39.241834,
       37.667254
      ],
      [
       39.241948,
       37.667254
      ],
      [
       39.241949,
       37.667525
      ],
      [
       39.242062,
       37.667524
      ],
      [
       39.242063,
       37.667705
      ],
      [
       39.241949,
       37.667705
      ],
      [
       39.24195,
       37.667795
      ],
      [
       39.241723,
       37.667796
      ]
     ]
    ]
   },
   "properties": {
    "name": "Siverek 2021 oil plume (re-cut)",
    "date_image": "2021-08-15",
    "date_event": "2021-08-13",
    "area_ha": 0.49,
    "area_ha_range": "0.28 (thr -0.085) to 0.72 (thr -0.045)",
    "extent_m": [
     90,
     100
    ],
    "elongation": 1.42,
    "axis_deg": 46.7,
    "centroid": [
     39.241549,
     37.667333
    ],
    "dist_from_osm_terminus_m": 8094,
    "bearing_deg": 249.5,
    "vnir_swir": 2.35,
    "vnir_swir_meanofratios": 3.32,
    "vnir_swir_medianofratios": 2.45,
    "method": "10-band albedo residual (610 m local median) < -0.065 AND dVNIR/dSWIR > 1, 3x3 opening, seed-anchored at 37.667615 N 39.241949 E",
    "supersedes": "earlier 3.32 ha hysteresis delineation, which leaked along a field boundary"
   }
  }
 ]
}