{"type": "FeatureCollection", "features": [{"type": "Feature", "properties": {"osm_way_id": 20171711}, "geometry": {"type": "LineString", "coordinates": [[43.5467079, 35.0297115], [43.5421682, 35.0311032], [43.5272632, 35.0332295], [43.4819413, 35.0264377], [43.462294, 35.0321276], [43.3977569, 35.0851713], [43.2824623, 35.1941256], [43.2765626, 35.1936842], [43.215375, 35.2329794], [43.19481, 35.265178], [43.1923691, 35.2692062], [43.1356904, 35.3534715], [43.1267058, 35.3655848], [43.1229789, 35.3724735], [43.0819727, 35.4451246], [43.0766235, 35.4511323], [43.0781296, 35.4525707], [43.0750655, 35.4557012], [43.0545954, 35.493494], [43.0178612, 35.5384095], [43.0148101, 35.5446427], [42.973978, 35.6475928], [42.9719493, 35.6504941], [42.9664678, 35.6632148], [42.9645733, 35.6701276], [42.9619887, 35.671726], [42.919508, 35.7768975], [42.9082425, 35.8007581], [42.86054, 35.9176653], [42.858171, 35.9235235], [42.8554204, 35.9302436], [42.852384, 35.9376727], [42.8497907, 35.9440939], [42.8470393, 35.9508226], [42.8448923, 35.9560456], [42.8424654, 35.9620117], [42.8402164, 35.9675047], [42.8374692, 35.9742901], [42.8371854, 35.9745284], [42.8353309, 35.97899], [42.8344991, 35.9811188], [42.8338355, 35.982358], [42.8334856, 35.9832454], [42.833413, 35.9837861], [42.8321672, 35.9872664], [42.8312557, 35.9896834], [42.8287663, 35.994997], [42.8271192, 35.9999209], [42.8259259, 36.0028446], [42.8236424, 36.0064875], [42.8181177, 36.0152832], [42.8165695, 36.0175862], [42.8109687, 36.0272792], [42.8054972, 36.0364061], [42.7975002, 36.0498126], [42.790457, 36.0611444], [42.7876257, 36.0687316], [42.7847268, 36.0771194], [42.7837547, 36.0782391], [42.7830383, 36.0831502], [42.7816534, 36.0870579], [42.7782886, 36.0971018], [42.7761927, 36.1032167], [42.7715979, 36.1174377], [42.7691259, 36.1249657], [42.7612078, 36.1480178], [42.7577186, 36.1564201], [42.7516287, 36.1766612], [42.7475902, 36.1906512], [42.7462195, 36.1964881], [42.7425145, 36.2088352], [42.7414433, 36.2129265], [42.7414824, 36.2140361], [42.742297, 36.2191526], [42.7434514, 36.226584], [42.7445889, 36.2333093], [42.7468072, 36.246703], [42.7449957, 36.2512421], [42.7397022, 36.2647403], [42.7312676, 36.2864975], [42.7269778, 36.2975608], [42.7230668, 36.3072805], [42.7203599, 36.3131416], [42.7175756, 36.3209152], [42.7032425, 36.3586332], [42.7011777, 36.3640653], [42.7003535, 36.3658212], [42.6978493, 36.3707933], [42.6977615, 36.3713124], [42.6952742, 36.378315], [42.6928544, 36.3847931], [42.6909213, 36.3894314], [42.6865616, 36.3992004], [42.6773096, 36.4214313], [42.6711914, 36.4351617], [42.6625174, 36.4566133], [42.6580903, 36.4616148], [42.6550659, 36.4655245], [42.6388164, 36.4853013], [42.6386471, 36.4857483], [42.6387543, 36.4864227], [42.6405088, 36.4922738], [42.6360728, 36.4977744], [42.6315236, 36.5033943], [42.6252529, 36.5115247], [42.6216015, 36.5161275], [42.6186044, 36.5199101], [42.6143136, 36.5254858], [42.6127056, 36.5275275], [42.6093162, 36.5316315], [42.5997891, 36.5442518], [42.5963236, 36.5484201], [42.5929905, 36.552838], [42.5871734, 36.5602437], [42.5770923, 36.573076], [42.5728642, 36.5784575], [42.5683944, 36.5838995], [42.5616659, 36.5926209], [42.5579593, 36.5974249], [42.5561147, 36.6000987], [42.5536841, 36.6037693], [42.550859, 36.6070355], [42.5487257, 36.6090171], [42.5457106, 36.612956], [42.5397891, 36.6204979], [42.534672, 36.6266788], [42.529844, 36.6330207], [42.5220522, 36.6429863], [42.5187851, 36.6471256], [42.5131727, 36.6553405], [42.5094664, 36.6607792], [42.5044978, 36.6680211], [42.5011479, 36.6727721], [42.4971483, 36.6791114], [42.4923262, 36.6860571], [42.4797225, 36.7043277], [42.4687086, 36.720429], [42.4627646, 36.7292891], [42.4558566, 36.7395005], [42.451652, 36.7453946], [42.4448899, 36.7553958], [42.4197782, 36.7924301], [42.4022892, 36.8177561], [42.3967823, 36.8255811], [42.3932943, 36.8308078], [42.3935656, 36.8327781], [42.3918724, 36.8377998], [42.3905067, 36.841997], [42.3889518, 36.8500443], [42.3884947, 36.8539966], [42.3880175, 36.8585561], [42.3842097, 36.8728398], [42.3836541, 36.8766861], [42.3824535, 36.8835909], [42.3813901, 36.8869794], [42.3799175, 36.8917529], [42.3799059, 36.896407], [42.3792091, 36.9051894], [42.3786611, 36.9104254], [42.3784129, 36.9164007], [42.3780052, 36.9238608], [42.3775198, 36.9327921], [42.3772392, 36.9396247], [42.3755071, 36.9478905], [42.3748987, 36.9513216], [42.3739392, 36.9576652], [42.3734778, 36.9635575], [42.3732692, 36.9649678], [42.3723033, 36.967639], [42.3718619, 36.9694606], [42.3712363, 36.9713957], [42.3715133, 36.9734329], [42.3720873, 36.9743104], [42.3716853, 36.9787323], [42.3714521, 36.9835056], [42.3710671, 36.9876294], [42.3710256, 36.9918835], [42.3708885, 36.9945505], [42.3721572, 36.9994788], [42.3729713, 37.0043933], [42.3731679, 37.0085849], [42.3736737, 37.0128572], [42.3748744, 37.0187686], [42.3750307, 37.022148], [42.3762093, 37.0305364], [42.3769113, 37.0363741], [42.3770478, 37.0374181], [42.3864355, 37.0432844], [42.3918428, 37.0471293], [42.3909831, 37.0530708], [42.3937311, 37.0593051], [42.3946994, 37.0603282], [42.3980441, 37.0640952], [42.3987307, 37.0666892], [42.399007, 37.0703318], [42.4009221, 37.0762297], [42.4023759, 37.0803897], [42.402581, 37.0822717], [42.4033656, 37.0871299], [42.4046423, 37.090151], [42.4081855, 37.0979173], [42.4102428, 37.102337], [42.4118923, 37.105841], [42.4145316, 37.1106538], [42.4150868, 37.1118303], [42.4161275, 37.1131051], [42.4175759, 37.1148076], [42.4181231, 37.1153894], [42.4188419, 37.1158343], [42.422243, 37.1177934], [42.4234768, 37.1185976], [42.4233346, 37.1196841], [42.4214757, 37.1224654], [42.4216797, 37.1278365], [42.4221451, 37.133452]]}}, {"type": "Feature", "properties": {"osm_way_id": 93566193}, "geometry": {"type": "LineString", "coordinates": [[41.9701715, 37.3619383], [41.967797, 37.3612924], [41.9637971, 37.3608895], [41.9567749, 37.3601822], [41.9550977, 37.3600954], [41.9523998, 37.3599431], [41.9504966, 37.3598496], [41.9429481, 37.3596055], [41.9272406, 37.3587548], [41.9231261, 37.3580476], [41.9182189, 37.3570715], [41.9097956, 37.3553959], [41.9045134, 37.3536169], [41.8964024, 37.3505006], [41.8927087, 37.3491032], [41.888716, 37.3475473], [41.8818054, 37.3448654], [41.8785031, 37.343632], [41.8747501, 37.3422183], [41.8717663, 37.3409815], [41.8609929, 37.3368476], [41.8530219, 37.3354315], [41.849764, 37.3351207], [41.8449857, 37.3340327], [41.8169242, 37.3289208], [41.8095396, 37.3256739], [41.8066292, 37.3245236], [41.7985262, 37.3237701], [41.7862765, 37.3216534], [41.7819649, 37.3210073], [41.7798653, 37.3206332], [41.776998, 37.3200411], [41.7714443, 37.3192635], [41.767844, 37.3185118], [41.7487726, 37.312332], [41.7356506, 37.3076], [41.7293537, 37.3053666], [41.723599, 37.3048359], [41.7069728, 37.3034237], [41.6920589, 37.3020311], [41.6842448, 37.300046], [41.6805519, 37.2990632], [41.6784317, 37.298409], [41.6763635, 37.2975707], [41.6745401, 37.2969979], [41.6731792, 37.2965197], [41.6721354, 37.2962569], [41.6709, 37.296073], [41.6661624, 37.295301], [41.6541886, 37.2934636], [41.6272154, 37.2841234], [41.6238126, 37.2831449], [41.6148342, 37.2807316], [41.6118086, 37.2805395], [41.6112503, 37.2804435], [41.6089038, 37.2795009], [41.5934216, 37.2758808], [41.5705812, 37.2726537], [41.5581635, 37.2720638], [41.555613, 37.2714867], [41.5552145, 37.2714613], [41.5525205, 37.2718926], [41.5495954, 37.27214], [41.5491332, 37.2721336], [41.5435301, 37.2709856], [41.54086, 37.270123], [41.5404296, 37.2700469], [41.5257404, 37.2737129], [41.516479, 37.2776641], [41.515937, 37.2778099], [41.5123822, 37.2784441], [41.5120236, 37.2784568], [41.4939231, 37.2762815], [41.4932695, 37.2762561], [41.4927594, 37.2763639], [41.491277, 37.2770489], [41.4893402, 37.2780065], [41.4843189, 37.2814184], [41.4837132, 37.2816594], [41.4618428, 37.2841643], [41.4591807, 37.2850141], [41.4578258, 37.2853819], [41.4523263, 37.2862126], [41.4450733, 37.2892944], [41.4444676, 37.289472], [41.4385058, 37.2904168]]}}, {"type": "Feature", "properties": {"osm_way_id": 123739261}, "geometry": {"type": "LineString", "coordinates": [[41.2837314, 37.370418], [41.2803469, 37.3755058], [41.2730443, 37.3815869], [41.2727609, 37.3819446], [41.2718939, 37.3834019], [41.2715105, 37.3839848], [41.2709603, 37.3846339], [41.2695265, 37.3859612], [41.2681454, 37.3873113], [41.2643746, 37.3916548], [41.2639578, 37.3920257], [41.2573389, 37.3957213], [41.256872, 37.3960127], [41.2515535, 37.3998538], [41.2466018, 37.4038404], [41.2427342, 37.4070257], [41.2334473, 37.4145409], [41.2327475, 37.4150191], [41.2323183, 37.4152096], [41.2164014, 37.4229062], [41.2160106, 37.4232166], [41.214187, 37.4261129], [41.2139005, 37.4264232], [41.2037668, 37.4326707], [41.2029071, 37.4332912], [41.1998435, 37.4358228], [41.1971742, 37.4380657], [41.1947447, 37.4400743], [41.1916891, 37.442507], [41.1877735, 37.4456821], [41.1824052, 37.4513557], [41.1806851, 37.4530366]]}}, {"type": "Feature", "properties": {"osm_way_id": 123874677}, "geometry": {"type": "LineString", "coordinates": [[37.4256841, 37.4133195], [37.3781785, 37.4005118], [37.3746699, 37.399815], [37.3720385, 37.4003028], [37.364936, 37.4000319], [37.3634534, 37.4005047], [37.3618891, 37.4010549], [37.3612192, 37.4014671], [37.3607775, 37.4018105], [37.3580942, 37.4021686], [37.3540668, 37.4019841], [37.3511722, 37.4016357], [37.3143883, 37.3942104], [37.2853004, 37.3888178], [37.277999, 37.3873818], [37.2346884, 37.3789026], [37.2297028, 37.3786851], [37.2215764, 37.3815191], [37.219049, 37.3813397], [37.2091477, 37.3843629], [37.2079632, 37.3843204], [37.2043525, 37.3834246], [37.2014495, 37.3822624], [37.1819567, 37.3749999], [37.1502259, 37.3627631], [37.1188294, 37.3428066], [37.0962309, 37.3259467], [37.0663055, 37.3064624], [37.065339, 37.3055701], [37.0643719, 37.304231], [37.06196, 37.3036326], [37.0536285, 37.2981006], [37.0521402, 37.2971173], [37.0511902, 37.2964896], [37.0282529, 37.2813338]]}}, {"type": "Feature", "properties": {"osm_way_id": 123874679}, "geometry": {"type": "LineString", "coordinates": [[37.7131469, 37.4558841], [37.736752, 37.4539299], [37.7503093, 37.4540234], [37.7595433, 37.4533961], [37.7660194, 37.453172], [37.8311875, 37.4494823], [37.8494131, 37.4485518], [37.8588009, 37.4494291], [37.8746152, 37.4526721], [37.9164791, 37.4503745], [37.9325992, 37.4466012], [37.936247, 37.4463798], [37.9410106, 37.4458005], [37.9474211, 37.445298], [37.9499853, 37.4454215], [37.9574418, 37.4458133], [37.9630852, 37.4462776], [37.9653597, 37.4465586], [37.9729557, 37.4469845], [37.9805839, 37.447436], [37.9918706, 37.4491565], [37.9945528, 37.4494802], [38.0056035, 37.4503405], [38.015002, 37.4522569], [38.0336487, 37.4536196], [38.0463838, 37.4546076], [38.0592585, 37.4559319], [38.0660927, 37.455472], [38.0697834, 37.4548333], [38.078506, 37.4557829], [38.0929899, 37.4571967], [38.1040042, 37.4581896], [38.1313438, 37.4598714], [38.1372061, 37.4597464], [38.1464552, 37.4594693], [38.151147, 37.4588233], [38.1531396, 37.4585526], [38.1548524, 37.4580764], [38.1580959, 37.4576889], [38.1648809, 37.4569204], [38.1679176, 37.4556002], [38.1763161, 37.4531501]]}}, {"type": "Feature", "properties": {"osm_way_id": 123874680}, "geometry": {"type": "LineString", "coordinates": [[37.4256841, 37.4133195], [37.4295239, 37.4143375], [37.4339939, 37.4155226], [37.4351686, 37.4158341], [37.4381528, 37.4166252], [37.4385872, 37.4167404], [37.4458943, 37.4186749], [37.4519525, 37.4202787], [37.473152, 37.4258015], [37.4767699, 37.426744], [37.4773894, 37.4268719], [37.4828275, 37.4272665], [37.4830579, 37.4272832], [37.4846778, 37.4274008], [37.4908172, 37.4289346], [37.4951087, 37.4314736], [37.5008946, 37.4330357], [37.5030247, 37.4335724], [37.5065069, 37.4344971], [37.5096507, 37.4353319], [37.5102705, 37.4354965], [37.5121665, 37.436], [37.5165922, 37.4367494], [37.5196901, 37.437274], [37.5210662, 37.4374274], [37.521173, 37.4374528], [37.5263833, 37.4383005], [37.527835, 37.4385367], [37.5305332, 37.4389538], [37.5309102, 37.4390345], [37.5311541, 37.4390891], [37.5333855, 37.4395771], [37.5351879, 37.4399305], [37.5357526, 37.4400412], [37.5461867, 37.4429534], [37.5491469, 37.4437773], [37.5513902, 37.4443951], [37.5565547, 37.4458588], [37.5577925, 37.4462097], [37.5651676, 37.448298], [37.5681517, 37.4490674], [37.5696575, 37.4494861], [37.5708538, 37.4498155], [37.579996, 37.4523676], [37.5832623, 37.453304], [37.5982958, 37.457452], [37.6021786, 37.4585233], [37.6030833, 37.458767], [37.6047622, 37.4592151], [37.6055464, 37.4594118], [37.608029, 37.4600346], [37.6125419, 37.4610504], [37.6147467, 37.4615996], [37.6163238, 37.4620127], [37.6169622, 37.4621681], [37.6171768, 37.4622171], [37.6180458, 37.462464], [37.6185841, 37.4625788], [37.6215836, 37.4628889], [37.6247664, 37.4631668], [37.6259397, 37.4631668], [37.6363935, 37.4623028], [37.6409638, 37.4619251], [37.649726, 37.461161], [37.6549758, 37.460715], [37.6611212, 37.4601915], [37.66233, 37.4600824], [37.663623, 37.459958], [37.6664436, 37.4597197], [37.6692197, 37.4594983], [37.6755422, 37.458976], [37.6761009, 37.4589312], [37.6774701, 37.458802], [37.6793933, 37.4586636], [37.6834617, 37.4583551], [37.684048, 37.4582907], [37.6939792, 37.4574685], [37.6954237, 37.4573465], [37.7011514, 37.4568629], [37.705558, 37.4564924], [37.7063813, 37.456427], [37.7081868, 37.4562524], [37.7108502, 37.4560341], [37.7122235, 37.4559309], [37.7131469, 37.4558841]]}}, {"type": "Feature", "properties": {"osm_way_id": 124164455}, "geometry": {"type": "LineString", "coordinates": [[39.3253675, 37.4358431], [39.3665682, 37.4401662], [39.3819106, 37.4417194], [39.4080746, 37.4445039], [39.4401692, 37.4444898], [39.4541807, 37.4446734], [39.4622966, 37.444769], [39.5154343, 37.4431533], [39.5213421, 37.4427725], [39.5251442, 37.4424845], [39.5314101, 37.4418845], [39.5457375, 37.440873], [39.5770228, 37.4386169], [39.5881476, 37.4384146], [39.6163589, 37.4379965], [39.6461667, 37.4377133], [39.6675332, 37.4374975], [39.6932138, 37.4372143], [39.7107588, 37.4362029], [39.7232656, 37.4357206], [39.7414814, 37.4354914], [39.7488952, 37.4354981], [39.7585084, 37.435579], [39.7780206, 37.4358075], [39.7824654, 37.4358754], [39.7912482, 37.4359093], [39.7971248, 37.4354512], [39.811111, 37.4343228], [39.8194878, 37.4340598], [39.8372244, 37.433415], [39.8466589, 37.4330841], [39.8682954, 37.4325835], [39.8705926, 37.4328126], [39.8745993, 37.4327532], [39.8763302, 37.4326429], [39.8777193, 37.4324563], [39.883692, 37.4323969], [39.8949109, 37.4322102], [39.9017704, 37.4321254], [39.9225949, 37.431803], [39.9316982, 37.4316757], [39.9432911, 37.431489], [39.9483556, 37.4314721], [39.9532278, 37.4313703], [39.9564439, 37.4313533], [39.9626047, 37.4312786], [39.966605, 37.4312243], [40.0234801, 37.4296469], [40.0678643, 37.4283526], [40.0886772, 37.4273569], [40.0933898, 37.4272653]]}}, {"type": "Feature", "properties": {"osm_way_id": 124323594}, "geometry": {"type": "LineString", "coordinates": [[40.6911397, 37.4369543], [40.6978401, 37.4353991], [40.7005203, 37.4353991], [40.7077065, 37.4375401], [40.7124866, 37.43786], [40.7132406, 37.437824], [40.7223642, 37.435575], [40.7262371, 37.4358881], [40.7289958, 37.435797], [40.7365766, 37.43773], [40.7373442, 37.4376689], [40.7382487, 37.4373635], [40.7421659, 37.4358084], [40.745572, 37.4357176], [40.7464593, 37.4357992], [40.7477202, 37.4363925], [40.7494014, 37.4371786], [40.7506156, 37.437631], [40.7513908, 37.4382687], [40.7535577, 37.4404639], [40.7553696, 37.442303], [40.7559746, 37.4430119], [40.7606166, 37.4447539], [40.7619103, 37.4452826], [40.7637874, 37.445922], [40.7663494, 37.4472713], [40.7684612, 37.4487666], [40.7694885, 37.4497584], [40.7696978, 37.4498994], [40.7700846, 37.4500303], [40.7756209, 37.4510623], [40.7816708, 37.4522102], [40.7833893, 37.4524971], [40.7897512, 37.4526633], [40.7904361, 37.4527197], [40.7959885, 37.4534756], [40.7964565, 37.4535545], [40.8141064, 37.4537143], [40.8147722, 37.4536283], [40.8176519, 37.4520919], [40.8185189, 37.4518092], [40.8292018, 37.4511455], [40.8361999, 37.451502], [40.8396525, 37.4510841], [40.8440031, 37.4506416], [40.8487918, 37.4497242], [40.8551255, 37.4484089], [40.8562274, 37.4482201], [40.8566792, 37.4482956], [40.8572103, 37.4486291], [40.8632824, 37.4530343], [40.8653038, 37.4538838], [40.8660648, 37.4541292], [40.8675789, 37.454318], [40.8684825, 37.4542991], [40.870718, 37.4539593], [40.8719308, 37.4535943], [40.8759815, 37.4516687], [40.8775986, 37.4511653], [40.8782169, 37.4510394], [40.8793267, 37.4510205], [40.8810072, 37.4511904], [40.8837347, 37.4521099], [40.8865974, 37.4529107], [40.8881805, 37.4533444], [40.888755, 37.4534705], [40.8893854, 37.4535187], [40.8905389, 37.4535891], [40.8910432, 37.4535743], [40.8915476, 37.4534], [40.8919913, 37.4531961], [40.8942422, 37.4522767], [40.8964204, 37.4513902], [40.8978007, 37.4510184], [40.9007708, 37.4505977], [40.9010543, 37.4505684], [40.9012453, 37.4506075], [40.9015534, 37.4506662], [40.9018307, 37.4508179], [40.9075944, 37.4532168], [40.9150934, 37.4567847], [40.9160843, 37.4571434], [40.9166471, 37.4572252], [40.9217204, 37.4576091]]}}, {"type": "Feature", "properties": {"osm_way_id": 128549510}, "geometry": {"type": "LineString", "coordinates": [[36.3803044, 37.2335522], [36.3777353, 37.2342024], [36.375157, 37.2338371], [36.3742945, 37.2339175], [36.372964, 37.2341878], [36.369248, 37.2342243], [36.3665648, 37.2336588], [36.3629522, 37.2309417], [36.3591322, 37.2296218], [36.356298, 37.2270023], [36.350429, 37.2217156], [36.348825, 37.2208864], [36.3344231, 37.2148955], [36.3281239, 37.2121871], [36.326153, 37.21151], [36.3228166, 37.2099506], [36.3197512, 37.2082679], [36.3135159, 37.2038153], [36.3050835, 37.2006858], [36.3034552, 37.2003246], [36.2995082, 37.1987075], [36.2989311, 37.1982889], [36.2982323, 37.1971191], [36.2962195, 37.1941305], [36.2947864, 37.1931172], [36.2940618, 37.1916292], [36.2916787, 37.1906415], [36.2892794, 37.1905645], [36.2885226, 37.1904619], [36.2882006, 37.1902823], [36.2865742, 37.1886917], [36.2855115, 37.1879862], [36.2848513, 37.1868829], [36.2832733, 37.1857284], [36.2814293, 37.1848834]]}}, {"type": "Feature", "properties": {"osm_way_id": 128598661}, "geometry": {"type": "LineString", "coordinates": [[36.2095923, 37.123473], [36.2070911, 37.1219245], [36.2033015, 37.1212866], [36.2026472, 37.1211765], [36.1933833, 37.1200453], [36.1832203, 37.1168698], [36.1817665, 37.116713], [36.1813942, 37.1165226], [36.1810009, 37.1160745], [36.1803561, 37.1108392], [36.1747702, 37.1068746], [36.1691295, 37.1028048], [36.1689581, 37.1001719], [36.1684917, 37.0991457], [36.1672371, 37.0984016], [36.1653875, 37.0976704], [36.1620903, 37.0970161], [36.1595812, 37.0959642], [36.1579889, 37.0956178], [36.1514427, 37.0956178], [36.1495448, 37.0951303]]}}, {"type": "Feature", "properties": {"osm_way_id": 129786592}, "geometry": {"type": "LineString", "coordinates": [[41.9701715, 37.3619383], [41.9743801, 37.3632955], [41.9748584, 37.3632955], [41.9761776, 37.3629268], [41.9822661, 37.3613022], [41.9842956, 37.360922], [41.9954724, 37.3607146], [42.0005786, 37.360785], [42.0176294, 37.3605995], [42.0269892, 37.3587774], [42.0366729, 37.3576159], [42.0427554, 37.3569202], [42.0470081, 37.3563423], [42.0860716, 37.3516255], [42.0872174, 37.3516255], [42.0919175, 37.3519497], [42.0954133, 37.3523048], [42.1089696, 37.3561798], [42.1125043, 37.3568745], [42.1156506, 37.3574456], [42.1160196, 37.3573993], [42.1270316, 37.3529378], [42.1298988, 37.3516128], [42.1350631, 37.3471225], [42.1386012, 37.3448638], [42.1417203, 37.3428725], [42.1422246, 37.3427282], [42.1469452, 37.3419744], [42.1473688, 37.3419744], [42.1566284, 37.3439952], [42.1653108, 37.345859], [42.1662061, 37.3459463], [42.1686555, 37.345812], [42.1725408, 37.3456643], [42.1735881, 37.3455233], [42.1742976, 37.3453487]]}}, {"type": "Feature", "properties": {"osm_way_id": 129844813}, "geometry": {"type": "LineString", "coordinates": [[41.4385058, 37.2904168], [41.4348023, 37.2910098], [41.4321824, 37.2912942], [41.4299308, 37.2916705], [41.4291549, 37.2921582], [41.4251828, 37.2947257], [41.4156249, 37.2974906], [41.3883166, 37.3066733], [41.3793048, 37.3095462], [41.3642356, 37.3109187], [41.3623736, 37.3114123], [41.3514503, 37.3165459], [41.3291071, 37.3267133], [41.3225283, 37.3325367], [41.3188044, 37.3339185], [41.3169425, 37.3351029], [41.3123497, 37.3363859], [41.3093706, 37.336682], [41.3077569, 37.3370767], [41.3060191, 37.3393466], [41.2990679, 37.3543459], [41.2948475, 37.3580953], [41.2917443, 37.3609565], [41.2877722, 37.3648042], [41.2837314, 37.370418]]}}, {"type": "Feature", "properties": {"osm_way_id": 172281994}, "geometry": {"type": "LineString", "coordinates": [[40.9217204, 37.4576091], [40.9253178, 37.4578492], [40.9328106, 37.4581304], [40.9384914, 37.4584122], [40.94215, 37.4590065], [40.9486444, 37.4604793], [40.9543435, 37.4604793], [40.9600426, 37.4619522], [40.9628258, 37.4616366], [40.9709106, 37.4601637], [40.9805858, 37.4572179], [40.9836342, 37.4573231], [40.9862849, 37.455745], [40.9898634, 37.4552189], [40.993707, 37.4555346], [40.9968879, 37.4564815], [41.0011291, 37.456271], [41.0059751, 37.4550724], [41.0242534, 37.4551011], [41.0292269, 37.4560788], [41.036955, 37.4576366], [41.0653628, 37.4631567], [41.0720117, 37.464345], [41.0771394, 37.4650029], [41.0818712, 37.4665793], [41.0887187, 37.4689678], [41.0916885, 37.4699073]]}}, {"type": "Feature", "properties": {"osm_way_id": 181454873}, "geometry": {"type": "LineString", "coordinates": [[39.3253675, 37.4358431], [39.3119592, 37.4367108], [39.2667155, 37.4344324], [39.2325694, 37.4325178], [39.1765961, 37.4294574]]}}, {"type": "Feature", "properties": {"osm_way_id": 181454874}, "geometry": {"type": "LineString", "coordinates": [[39.1765961, 37.4294574], [39.0632548, 37.4230556], [39.0362566, 37.4202806], [39.0291884, 37.4195595], [39.0284661, 37.4194858], [39.0117878, 37.417714], [39.0014773, 37.4178388], [38.9695795, 37.4157321], [38.923375, 37.4150714], [38.9070382, 37.414849], [38.8994357, 37.4146654], [38.8798427, 37.4109807], [38.8599637, 37.4065293], [38.8544568, 37.4080367], [38.853807, 37.4080112], [38.8488102, 37.4067962], [38.8227495, 37.4046178]]}}, {"type": "Feature", "properties": {"osm_way_id": 181464203}, "geometry": {"type": "LineString", "coordinates": [[38.5020053, 37.38259], [38.5018179, 37.3826777], [38.5015694, 37.3828057], [38.477114, 37.3954087], [38.4181656, 37.3996597], [38.4088848, 37.400329], [38.3807467, 37.4025718], [38.3643606, 37.4024475], [38.3560571, 37.4038624], [38.3447739, 37.4055238], [38.3158312, 37.4100459], [38.2671444, 37.4235685], [38.2321521, 37.4333998], [38.2251045, 37.4385603], [38.2229912, 37.4395881], [38.2003516, 37.4454326], [38.1763161, 37.4531501]]}}, {"type": "Feature", "properties": {"osm_way_id": 181464204}, "geometry": {"type": "LineString", "coordinates": [[38.8227495, 37.4046178], [38.8122399, 37.4037891], [38.806506, 37.4033369], [38.8046768, 37.4031926], [38.8005106, 37.4028641], [38.7662252, 37.4003089], [38.76386, 37.4001286]]}}, {"type": "Feature", "properties": {"osm_way_id": 181464205}, "geometry": {"type": "LineString", "coordinates": [[38.76386, 37.4001286], [38.7400302, 37.3980994], [38.7394581, 37.3979311], [38.7348794, 37.3959943], [38.7300864, 37.3940412], [38.7297369, 37.3937808], [38.7286787, 37.3925459], [38.7282231, 37.3921837], [38.7199867, 37.3883311], [38.7155937, 37.3842088], [38.7142296, 37.3818631], [38.7094767, 37.3795289], [38.7064332, 37.3778789], [38.6856112, 37.3725056], [38.6846451, 37.3722834], [38.6778669, 37.3717316], [38.6732781, 37.3712211], [38.6682863, 37.3707449], [38.6637001, 37.3709518], [38.6591197, 37.3711584], [38.6588312, 37.3711603], [38.645666, 37.3716546], [38.6454471, 37.3716659], [38.6382857, 37.3720355], [38.6314731, 37.3722407], [38.6246328, 37.3725844], [38.6231286, 37.372788], [38.6182029, 37.3727552], [38.599079, 37.3733912]]}}, {"type": "Feature", "properties": {"osm_way_id": 188056729}, "geometry": {"type": "LineString", "coordinates": [[36.2814293, 37.1848834], [36.2807214, 37.1820891], [36.2804317, 37.1816917], [36.2797237, 37.1813455], [36.2781468, 37.1811917], [36.2755401, 37.1795122], [36.2713403, 37.1781584], [36.2682123, 37.1763532], [36.2666418, 37.1754917], [36.2652515, 37.1742506], [36.2647366, 37.1739634], [36.2642475, 37.1736659], [36.2627928, 37.1707323], [36.2624324, 37.1703323], [36.2605272, 37.1690808], [36.2594974, 37.1683218], [36.2576695, 37.1665369], [36.2565624, 37.1651315], [36.2563436, 37.1641365], [36.2558544, 37.1635517], [36.255391, 37.1614282], [36.2540909, 37.1597252], [36.2538592, 37.1591199], [36.2537948, 37.1574579], [36.2525719, 37.1546263], [36.2525204, 37.1542775], [36.2528293, 37.1514971], [36.2527907, 37.1512508], [36.2513361, 37.1494758], [36.24983, 37.1486652], [36.249122, 37.1482035], [36.2487487, 37.1478649], [36.2482466, 37.1467054], [36.2468049, 37.144448], [36.2463318, 37.1421743], [36.246378, 37.1409761], [36.2464852, 37.1400004], [36.2464455, 37.1393276], [36.2460774, 37.1388601], [36.2441835, 37.1369968], [36.243765, 37.1368068], [36.2423664, 37.1363225], [36.2389783, 37.134566], [36.2377425, 37.1342786], [36.2367641, 37.1337614], [36.2361669, 37.132924], [36.23524, 37.1321769], [36.2345397, 37.131791], [36.233376, 37.1316514], [36.2316459, 37.1314297], [36.2281652, 37.1312491], [36.2243586, 37.1306684], [36.221784, 37.1292252], [36.2178015, 37.1273489], [36.2146788, 37.126466], [36.2134046, 37.1261058], [36.2095923, 37.123473]]}}, {"type": "Feature", "properties": {"osm_way_id": 191693917}, "geometry": {"type": "LineString", "coordinates": [[40.4512946, 37.4710797], [40.4452318, 37.4708601], [40.4266692, 37.4698057], [40.4107054, 37.468886], [40.4083656, 37.4688971], [40.3880024, 37.4689521], [40.3814243, 37.4689313], [40.3742617, 37.468951], [40.358223, 37.467438], [40.3532327, 37.4673965], [40.3517896, 37.4670692], [40.3467385, 37.4646146], [40.3314822, 37.4633873], [40.3281475, 37.4628411], [40.3240068, 37.4618252], [40.3225764, 37.4618252], [40.3209201, 37.4621838], [40.3138434, 37.4622436], [40.308197, 37.461885], [40.3048092, 37.4614667], [40.2950975, 37.461885], [40.2847835, 37.4632594], [40.2792877, 37.4629009], [40.277961, 37.4626855], [40.2724818, 37.461617], [40.2669884, 37.460971], [40.2615155, 37.4615933], [40.2550395, 37.4621171], [40.2500773, 37.4611679]]}}, {"type": "Feature", "properties": {"osm_way_id": 191693918}, "geometry": {"type": "LineString", "coordinates": [[40.4512946, 37.4710797], [40.4563758, 37.4713267], [40.4639525, 37.4700576], [40.4642873, 37.4698916], [40.4646028, 37.4694485], [40.4649821, 37.4693201], [40.4678287, 37.4689347], [40.4684984, 37.468629], [40.473823, 37.465054], [40.47605, 37.4645357], [40.4887419, 37.4668349], [40.4915884, 37.4684031], [40.4959249, 37.4735463], [40.5064177, 37.4778697], [40.5086974, 37.4789058], [40.5093789, 37.4789697], [40.5123098, 37.4782292], [40.5132984, 37.4783866], [40.5207476, 37.480379], [40.5250703, 37.4810368], [40.5309918, 37.4807361], [40.5345446, 37.4797305], [40.5366171, 37.4793452], [40.5380146, 37.479223], [40.5388791, 37.4789317], [40.5438295, 37.4776723], [40.5443506, 37.4775971], [40.5480337, 37.4778321], [40.5487561, 37.4778321], [40.5532801, 37.4760651], [40.5567382, 37.474082], [40.5573778, 37.4739692], [40.5599003, 37.4738564], [40.5621386, 37.4730951], [40.5647677, 37.4717792], [40.5692562, 37.4715161], [40.5721814, 37.4706231], [40.5772028, 37.4679349], [40.5791095, 37.4677093], [40.5797253, 37.4676811], [40.5873844, 37.4682706], [40.5933291, 37.4700016], [40.5991252, 37.4712244], [40.6031116, 37.4710691], [40.6040164, 37.470875], [40.6048235, 37.4701763], [40.6056306, 37.4678858], [40.6071224, 37.4639842], [40.6077453, 37.4633873], [40.6095171, 37.4624966], [40.6163727, 37.4600379], [40.6182959, 37.4592744], [40.6208348, 37.4562233], [40.6230165, 37.4554486], [40.6242531, 37.4555825], [40.6247886, 37.4554988], [40.628707, 37.4541476], [40.6317332, 37.4527431], [40.6354941, 37.4483304], [40.6365194, 37.4473099], [40.6420721, 37.4454663], [40.6442001, 37.4443252], [40.6483601, 37.4404738], [40.6513427, 37.438527], [40.6551736, 37.4379352], [40.6588616, 37.4358546], [40.6594875, 37.4356826], [40.6795676, 37.4387537], [40.6801923, 37.4387041], [40.689154, 37.4374258], [40.6911397, 37.4369543]]}}, {"type": "Feature", "properties": {"osm_way_id": 230329482}, "geometry": {"type": "LineString", "coordinates": [[37.0282529, 37.2813338], [37.0129986, 37.2715468], [36.9698468, 37.2592828], [36.9676983, 37.2585284], [36.9540281, 37.2560775], [36.9409988, 37.2535273], [36.9237036, 37.250094], [36.9189449, 37.2491493], [36.9172082, 37.248794], [36.9138891, 37.2481149], [36.9005934, 37.2453945], [36.8936847, 37.2416391], [36.8932185, 37.2414277], [36.8818868, 37.2368187], [36.8812447, 37.2365527], [36.880829, 37.2366675], [36.8779428, 37.2352015], [36.8703903, 37.2321949], [36.8274136, 37.221215], [36.8122671, 37.2146246], [36.8044148, 37.2108738], [36.784884, 37.2020253], [36.7841502, 37.2000122], [36.7835898, 37.1984466], [36.7833549, 37.1979024], [36.7823754, 37.1956004], [36.7815422, 37.1936096], [36.7806626, 37.1915397], [36.7797509, 37.1891326], [36.778749, 37.1864967], [36.7776945, 37.1840223], [36.7775172, 37.1834688], [36.7774841, 37.1831318], [36.777519, 37.1819763], [36.777486, 37.1806179], [36.7776839, 37.1797699], [36.7791354, 37.1765737], [36.7802873, 37.1741237], [36.7803099, 37.1737288], [36.7801135, 37.1733133], [36.7798152, 37.1729789], [36.7786402, 37.1716059], [36.7770795, 37.1698898], [36.7752311, 37.169244], [36.7733882, 37.1679265], [36.771904, 37.1666025], [36.7711033, 37.1656914], [36.769366, 37.1646065], [36.7686792, 37.1639183], [36.767919, 37.1630066], [36.7676664, 37.1628266], [36.7659178, 37.1622718], [36.7618924, 37.1609792], [36.761401, 37.1608914], [36.7573628, 37.1611597], [36.753282, 37.1613703], [36.7491303, 37.1616628], [36.7439728, 37.161953], [36.7422208, 37.161804], [36.7378323, 37.1606964], [36.7328105, 37.1594863], [36.7316296, 37.1593261], [36.7292028, 37.1594407], [36.726128, 37.1595241], [36.7245276, 37.160617], [36.7235372, 37.1607114], [36.7197237, 37.161396], [36.7156953, 37.1620881], [36.7120763, 37.1627348], [36.7112076, 37.1627584], [36.7109777, 37.1627457], [36.7059056, 37.1624787], [36.7044882, 37.1623864], [36.7033377, 37.162021], [36.7025376, 37.1614956], [36.7019092, 37.1610893], [36.6993111, 37.1593767], [36.6975915, 37.1587252], [36.6969097, 37.1586597], [36.6901991, 37.1594963], [36.6887623, 37.1597373], [36.6879815, 37.1598683], [36.6851053, 37.1609712], [36.684908, 37.1609855], [36.6830879, 37.1611174], [36.6798475, 37.1630151], [36.6789695, 37.1650471]]}}, {"type": "Feature", "properties": {"osm_way_id": 279829192}, "geometry": {"type": "LineString", "coordinates": [[38.5020053, 37.38259], [38.5023479, 37.3823473], [38.5038556, 37.3791972], [38.5071645, 37.3722833], [38.5071966, 37.3701018], [38.5072132, 37.3689735], [38.5072431, 37.3669427], [38.5072688, 37.365193], [38.5072713, 37.3651457], [38.5072743, 37.3647994], [38.507275, 37.364771], [38.5072978, 37.3632241], [38.5072992, 37.3631282], [38.5070801, 37.3601254], [38.5070254, 37.3598403], [38.5066929, 37.3558462], [38.5095222, 37.3473585], [38.5134631, 37.3461536], [38.520469, 37.3463142], [38.5252855, 37.3481083], [38.5337248, 37.3518023], [38.5367375, 37.3533027], [38.5485264, 37.3583629], [38.560012, 37.3647345], [38.5726092, 37.3696065], [38.5726922, 37.3696739], [38.5746423, 37.3716542], [38.5766848, 37.3736485], [38.5776712, 37.3742838]]}}, {"type": "Feature", "properties": {"osm_way_id": 284454158}, "geometry": {"type": "LineString", "coordinates": [[42.1742976, 37.3453487], [42.1759446, 37.3440796], [42.1763247, 37.3434753], [42.1774818, 37.3425486], [42.1785376, 37.341951], [42.1790697, 37.3416555], [42.1797792, 37.3414809], [42.1812741, 37.3404602], [42.1842303, 37.3395134], [42.1858098, 37.3391441], [42.1873229, 37.3387291], [42.1902134, 37.338011], [42.1961646, 37.3376862]]}}, {"type": "Feature", "properties": {"osm_way_id": 284454161}, "geometry": {"type": "LineString", "coordinates": [[42.1961646, 37.3376862], [42.2020058, 37.3376339], [42.205661, 37.3375389], [42.206109, 37.3374155], [42.2071243, 37.3367507], [42.20762, 37.3366129], [42.2082107, 37.3365948], [42.2197318, 37.337179], [42.2243235, 37.3373964], [42.2254079, 37.3374477], [42.2258556, 37.3375887], [42.2264637, 37.3379379], [42.2268269, 37.3380319], [42.2272989, 37.3380813], [42.2294622, 37.3374678], [42.231084, 37.3371052], [42.2338882, 37.3365813], [42.2381706, 37.3354665], [42.2386517, 37.3353841], [42.2387196, 37.3353725], [42.2431963, 37.3347815], [42.2464355, 37.3346337], [42.2485139, 37.3344582], [42.250839, 37.3344788], [42.2556321, 37.3344375], [42.2570739, 37.3342826], [42.260646, 37.3334254], [42.2625295, 37.3333737], [42.2631672, 37.333331], [42.2637635, 37.3332911], [42.2643869, 37.3330949], [42.2645418, 37.3330216], [42.2682253, 37.3312771], [42.2759281, 37.3278118], [42.2830787, 37.3246408], [42.2892877, 37.322203], [42.2933014, 37.3206948], [42.3011276, 37.3177249], [42.3157991, 37.3122497], [42.3250671, 37.3087422], [42.331302, 37.3063917], [42.3349391, 37.3050176], [42.3390749, 37.3035861], [42.3434944, 37.3020565], [42.3444265, 37.3017304], [42.3477394, 37.3001759], [42.3560226, 37.2942925], [42.364334, 37.288416], [42.3753033, 37.2807458], [42.3872162, 37.2723409], [42.3913972, 37.2695015], [42.4033831, 37.2609973], [42.4077915, 37.2579344], [42.4084387, 37.2576847], [42.4121843, 37.2570447], [42.4124588, 37.2568574], [42.4127039, 37.2563658], [42.4147532, 37.2487952], [42.4161652, 37.243269]]}}, {"type": "Feature", "properties": {"osm_way_id": 307774207}, "geometry": {"type": "LineString", "coordinates": [[41.1806851, 37.4530366], [41.1757916, 37.4580856], [41.1664551, 37.4657745], [41.1659716, 37.4660524], [41.1631539, 37.4670978], [41.1625348, 37.4673228], [41.1583331, 37.4676033], [41.1557834, 37.4677245], [41.1552104, 37.4676639], [41.152804, 37.4671788], [41.1451646, 37.4668908], [41.1414499, 37.4667771], [41.1339919, 37.4671561], [41.127995, 37.4673986], [41.1177199, 37.4694526], [41.1174716, 37.4696117], [41.1173188, 37.4698543], [41.1166981, 37.4715747], [41.1165263, 37.4717793], [41.1161825, 37.471946], [41.1076359, 37.473189], [41.1071584, 37.4731586], [41.1045228, 37.4727039], [41.1011996, 37.47209], [41.0957279, 37.471317], [41.0916885, 37.4699073]]}}, {"type": "Feature", "properties": {"osm_way_id": 363801260}, "geometry": {"type": "LineString", "coordinates": [[40.2500773, 37.4611679], [40.2358721, 37.4617807], [40.233298, 37.4617544], [40.2302774, 37.4623631], [40.2283953, 37.4623631], [40.2195117, 37.4571042], [40.2113809, 37.4531001], [40.1979803, 37.4487969], [40.1897742, 37.4450912], [40.1874817, 37.4435535]]}}, {"type": "Feature", "properties": {"osm_way_id": 437247789}, "geometry": {"type": "LineString", "coordinates": [[40.0933898, 37.4272653], [40.1031414, 37.4275683], [40.1209812, 37.4274733], [40.1433088, 37.4278372], [40.1529564, 37.4282045], [40.166086, 37.4289234], [40.1699042, 37.4306715], [40.1736366, 37.4329649], [40.1874817, 37.4435535]]}}, {"type": "Feature", "properties": {"osm_way_id": 586351365}, "geometry": {"type": "LineString", "coordinates": [[36.4560911, 37.186955], [36.4634299, 37.1860658], [36.4658332, 37.1808346], [36.4682042, 37.1794541], [36.4711815, 37.1795352], [36.4756447, 37.1808987], [36.4812602, 37.1807819], [36.4894595, 37.1828092], [36.4955555, 37.1840478], [36.4993556, 37.1847116], [36.5081579, 37.185598], [36.5090388, 37.186017], [36.5095493, 37.1868228], [36.5103949, 37.1875459], [36.5109047, 37.1876601], [36.5502889, 37.1871548], [36.5525433, 37.1871259], [36.5617926, 37.1892312], [36.5781362, 37.1929511], [36.5853413, 37.1924592], [36.588099, 37.1926384], [36.5923794, 37.1920252], [36.5989888, 37.1925102], [36.5999329, 37.1923906], [36.6028519, 37.1913811], [36.6082404, 37.1894303], [36.6101672, 37.1889305], [36.6141699, 37.1889036], [36.6339839, 37.1821001], [36.6342709, 37.1820016], [36.6464317, 37.1778256]]}}, {"type": "Feature", "properties": {"osm_way_id": 586351366}, "geometry": {"type": "LineString", "coordinates": [[36.4560911, 37.186955], [36.450684, 37.1850401], [36.4427758, 37.1857961], [36.3803044, 37.2335522]]}}, {"type": "Feature", "properties": {"osm_way_id": 586351367}, "geometry": {"type": "LineString", "coordinates": [[36.6789695, 37.1650471], [36.677438, 37.1678191], [36.6755605, 37.1683834], [36.6685438, 37.1717218], [36.6598374, 37.1739916], [36.658287, 37.1758338], [36.65465, 37.1779453], [36.6488886, 37.1771332], [36.6464317, 37.1778256]]}}, {"type": "Feature", "properties": {"osm_way_id": 586351369}, "geometry": {"type": "LineString", "coordinates": [[42.4221451, 37.133452], [42.4272573, 37.1772272], [42.4256587, 37.208713], [42.4247092, 37.2128144], [42.4226546, 37.2201366], [42.4161652, 37.243269]]}}, {"type": "Feature", "properties": {"osm_way_id": 1467680515}, "geometry": {"type": "LineString", "coordinates": [[38.599079, 37.3733912], [38.5875137, 37.3737961], [38.5776712, 37.3742838], [38.5729579, 37.3744702], [38.5555408, 37.3751589], [38.5421067, 37.3771987], [38.5411795, 37.377767], [38.533828, 37.3824146], [38.5284518, 37.383874], [38.5022923, 37.382882], [38.5021797, 37.3828457], [38.5020912, 37.3827733], [38.5020053, 37.38259]]}}]}