{"type": "FeatureCollection", "features": [{"type": "Feature", "properties": {"osm_way_id": 129560297}, "geometry": {"type": "LineString", "coordinates": [[39.3276044, 37.6927334], [39.3329233, 37.6947623], [39.3454531, 37.6994036], [39.3667873, 37.7037255], [39.3784185, 37.706054], [39.3847205, 37.7090336], [39.4003922, 37.7165906], [39.4106932, 37.723075], [39.4313083, 37.735966], [39.4349415, 37.738333], [39.4425405, 37.7430864], [39.4524174, 37.747846], [39.487258, 37.7645728], [39.5182287, 37.7794024], [39.5244808, 37.7823922], [39.529228, 37.7847774], [39.5393211, 37.7896264], [39.5769197, 37.8013708], [39.6082531, 37.8111273], [39.6755434, 37.8376598], [39.7078618, 37.8504362], [39.7303157, 37.8593349], [39.7660106, 37.8734525], [39.8034479, 37.8882979], [39.832002, 37.8996098], [39.8324405, 37.8997203], [39.8423672, 37.8986571], [39.8680506, 37.8959382], [39.8872756, 37.8938628], [39.9060679, 37.8918662], [39.9186796, 37.8906394], [39.9225964, 37.8901523], [39.9362024, 37.8882945], [39.9367438, 37.8882759], [39.9478663, 37.8897064], [39.959589, 37.8912576], [39.96046, 37.8913505], [39.9678044, 37.890561], [39.971812, 37.8901801], [39.9767671, 37.8900129], [39.9772438, 37.8898132], [39.9797409, 37.889325], [39.9974672, 37.8875517], [40.018594, 37.8859913]]}}, {"type": "Feature", "properties": {"osm_way_id": 129693247}, "geometry": {"type": "LineString", "coordinates": [[41.1246556, 37.8063436], [41.124057, 37.8069413], [41.1236746, 37.8079152], [41.1232839, 37.8084407], [41.1215713, 37.8112321], [41.1205155, 37.8130909], [41.1204822, 37.8133667], [41.1224941, 37.8194352], [41.1226354, 37.8197373], [41.1247803, 37.8222722], [41.1251877, 37.8227056], [41.1252293, 37.8230668], [41.1260108, 37.8243605], [41.1261355, 37.8247479], [41.1261194, 37.824947], [41.1259615, 37.8254939], [41.1256761, 37.8262844], [41.1259941, 37.8282677], [41.1261521, 37.8309665], [41.1262269, 37.831564], [41.1264514, 37.8321944], [41.1269003, 37.833002], [41.1279063, 37.8344465], [41.1285381, 37.8352082], [41.1358607, 37.8433227]]}}, {"type": "Feature", "properties": {"osm_way_id": 129693248}, "geometry": {"type": "LineString", "coordinates": [[41.1246556, 37.8063436], [41.125329, 37.8062713], [41.1259691, 37.8065144], [41.1283883, 37.807296], [41.1285795, 37.807296], [41.1299262, 37.8068165], [41.1312231, 37.806915], [41.1315889, 37.8069741], [41.1337504, 37.8077426], [41.1340289, 37.8078181], [41.1352532, 37.8078132], [41.1374564, 37.8075258], [41.1398675, 37.8077475], [41.1424553, 37.807961], [41.143214, 37.8080267], [41.1448249, 37.8083715], [41.1495432, 37.8092829], [41.151788, 37.8085932], [41.1548019, 37.8078953], [41.1556853, 37.8077065], [41.1568493, 37.8077393], [41.160653, 37.8076654], [41.163324, 37.8083469], [41.166389, 37.8136227], [41.1666018, 37.813938], [41.1669344, 37.8167019], [41.1670142, 37.8183991], [41.1669211, 37.8204219], [41.1669277, 37.8216934], [41.1672936, 37.8237162], [41.1677991, 37.8239526], [41.167686, 37.82514], [41.1675995, 37.8261592], [41.1686571, 37.8261908]]}}, {"type": "Feature", "properties": {"osm_way_id": 181563828}, "geometry": {"type": "LineString", "coordinates": [[40.018594, 37.8859913], [40.0976532, 37.8802374], [40.1069454, 37.8794841], [40.1097833, 37.8793454], [40.1202342, 37.878496], [40.1229725, 37.8783394], [40.1382117, 37.8776816], [40.1414592, 37.8772997], [40.1460607, 37.8768071], [40.1476045, 37.8766497], [40.1488213, 37.8768703], [40.1549329, 37.8760046], [40.1553363, 37.8757765], [40.1556443, 37.8755334], [40.1707082, 37.8722683], [40.1759182, 37.8708624], [40.1783984, 37.8703302], [40.178956, 37.8701002], [40.17973, 37.870028], [40.179963, 37.8697717], [40.1801877, 37.8696206], [40.1822351, 37.8691673], [40.1948144, 37.8656742], [40.2020135, 37.8638345], [40.2074648, 37.8623808], [40.2124272, 37.8606642], [40.2137796, 37.8602206], [40.2143317, 37.859968], [40.2153437, 37.8592657], [40.2171882, 37.8581943], [40.2183845, 37.8575618], [40.2192064, 37.8574058], [40.2198826, 37.8571347], [40.2215471, 37.855763], [40.2297735, 37.8503463], [40.238614, 37.8510106], [40.2494981, 37.8520387], [40.2628766, 37.852377]]}}, {"type": "Feature", "properties": {"osm_way_id": 189985507}, "geometry": {"type": "LineString", "coordinates": [[41.2587901, 37.8152036], [41.2625456, 37.8109305], [41.2638252, 37.809447], [41.2671486, 37.8056396], [41.2680459, 37.8045105], [41.2698884, 37.8023398], [41.2710433, 37.8011122], [41.2716415, 37.8001931], [41.2724059, 37.7995366], [41.2747323, 37.796812], [41.2772499, 37.7939429]]}}, {"type": "Feature", "properties": {"osm_way_id": 189985508}, "geometry": {"type": "LineString", "coordinates": [[41.2772499, 37.7939429], [41.2781804, 37.7924984], [41.2811881, 37.7878825], [41.2813543, 37.7874032], [41.2814706, 37.7834634], [41.281587, 37.7803179], [41.2817448, 37.7798582], [41.2829246, 37.7784135], [41.2857246, 37.7748607], [41.285841, 37.7745257], [41.2855419, 37.7739215], [41.2855419, 37.7736194], [41.2859241, 37.7724307], [41.2866303, 37.7706312], [41.2872036, 37.7698693], [41.2881341, 37.7691666], [41.2895383, 37.7681814], [41.2908926, 37.7672947], [41.2911751, 37.7667233], [41.2913579, 37.7659089], [41.291549, 37.765725], [41.2925336, 37.7656428], [41.2944746, 37.7654536], [41.2952369, 37.7654677], [41.2957687, 37.7653766], [41.2971248, 37.764823], [41.297568, 37.764746], [41.2983125, 37.7647249], [41.2989329, 37.7645638], [41.2998015, 37.7642765], [41.3005461, 37.7641364], [41.3014147, 37.7640453], [41.3020085, 37.7639472], [41.3031431, 37.7638491], [41.3038344, 37.7636739], [41.3046144, 37.7636108], [41.3054564, 37.7635968], [41.3064491, 37.7636809], [41.3082838, 37.7641294], [41.3090195, 37.7642485], [41.3096754, 37.7642555], [41.3103136, 37.7641994], [41.3112797, 37.7644587], [41.3116342, 37.7646338], [41.3126712, 37.7654396], [41.3131853, 37.7656919], [41.3136728, 37.765797], [41.3141514, 37.765853], [41.3149491, 37.7659371], [41.3161723, 37.7655938], [41.3182729, 37.7653485], [41.3194163, 37.7650753], [41.3200633, 37.7649071], [41.320994, 37.7645568]]}}, {"type": "Feature", "properties": {"osm_way_id": 281267705}, "geometry": {"type": "LineString", "coordinates": [[40.4921876, 37.8871243], [40.4947398, 37.8844923], [40.4964753, 37.8834583], [40.5052349, 37.8794137], [40.514014, 37.878326], [40.5168212, 37.8777351], [40.5290029, 37.8724975], [40.5337114, 37.8724304], [40.5486804, 37.8722894], [40.5657582, 37.8720594], [40.5709644, 37.8728116], [40.5802364, 37.872887], [40.597999, 37.8697576], [40.6057919, 37.8694807], [40.621761, 37.8690533], [40.6376343, 37.8686369]]}}]}